SKYSAT-A                
1 39418U 13066C   26201.85301229  .00001789  00000+0  10409-3 0  9993
2 39418  97.3797 250.1772 0021001 193.2622 166.8060 15.13134696693578
SKYSAT-B                
1 40072U 14037D   26201.88061088  .00000747  00000+0  87855-4 0  9992
2 40072  98.3858 162.7722 0005974 155.2659 204.8843 14.88100507650971
SKYSAT-C1               
1 41601U 16040C   26201.36374534  .00004976  00000+0  14048-3 0  9994
2 41601  96.9554 231.2938 0000631 198.3803 161.7420 15.36798698562963
SKYSAT-C4               
1 41771U 16058B   26201.85754089  .00012435  00000+0  22685-3 0  9997
2 41771  96.9174 222.2407 0003556 110.3890 249.7744 15.49556266550688
SKYSAT-C5               
1 41772U 16058C   26201.69166530  .00004310  00000+0  13427-3 0  9995
2 41772  97.0451 240.8233 0003140 147.2624 212.8814 15.33763083548883
SKYSAT-C2               
1 41773U 16058D   26201.02132536  .00007045  00000+0  16310-3 0  9994
2 41773  97.0163 221.8941 0000811 320.8207  39.2982 15.42746945550111
SKYSAT-C3               
1 41774U 16058E   26201.06439642  .00014503  00000+0  22691-3 0  9993
2 41774  96.8998 230.6733 0002719 127.1966 232.9537 15.53846132551212
SKYSAT-C11              
1 42987U 17068A   26201.88858936  .00022322  00000+0  28234-3 0  9990
2 42987  97.4389 352.2374 0001487 152.1856 207.9480 15.59533664488496
SKYSAT-C10              
1 42988U 17068B   26201.93136944  .00007555  00000+0  22357-3 0  9996
2 42988  97.4543 339.1285 0001559 110.5311 249.6100 15.35188117487537
SKYSAT-C9               
1 42989U 17068C   26201.91925611  .00009064  00000+0  21235-3 0  9993
2 42989  97.4465 340.3789 0008146  25.7743 334.3909 15.42300468487957
SKYSAT-C8               
1 42990U 17068D   26201.91589708  .00007342  00000+0  20151-3 0  9991
2 42990  97.4560 339.0428 0001308 107.1679 252.9709 15.37560720487491
SKYSAT-C7               
1 42991U 17068E   26201.91056262  .00007142  00000+0  19633-3 0  9997
2 42991  97.4572 340.0294 0005174   1.1896 358.9360 15.37509962487555
SKYSAT-C6               
1 42992U 17068F   26201.93262288  .00006379  00000+0  19492-3 0  9991
2 42992  97.4610 339.8793 0004939  74.5210 285.6578 15.34229924487495
SKYSAT-C12              
1 43797U 18099AR  26201.80655631  .00012961  00000+0  23342-3 0  9997
2 43797  96.9258 223.7132 0004911  58.0870 302.0860 15.49907429427062
