{"fetched_at":"2026-07-21T07:06:30.167Z","source":"https://celestrak.org/NORAD/elements/gp.php?GROUP=planet&FORMAT=JSON","constellation":"skysat","records":[{"OBJECT_NAME":"SKYSAT-A","OBJECT_ID":"2013-066C","EPOCH":"2026-07-20T20:28:20.261856","CLASSIFICATION_TYPE":"U","MEAN_MOTION":15.13134696,"ECCENTRICITY":0.00210011,"INCLINATION":97.3797,"RA_OF_ASC_NODE":250.1772,"ARG_OF_PERICENTER":193.2622,"MEAN_ANOMALY":166.806,"EPHEMERIS_TYPE":0,"NORAD_CAT_ID":39418,"ELEMENT_SET_NO":999,"REV_AT_EPOCH":69357,"BSTAR":0.00010409283,"MEAN_MOTION_DOT":0.00001789,"MEAN_MOTION_DDOT":0},{"OBJECT_NAME":"SKYSAT-B","OBJECT_ID":"2014-037D","EPOCH":"2026-07-20T21:08:04.780032","CLASSIFICATION_TYPE":"U","MEAN_MOTION":14.88100507,"ECCENTRICITY":0.00059747,"INCLINATION":98.3858,"RA_OF_ASC_NODE":162.7722,"ARG_OF_PERICENTER":155.2659,"MEAN_ANOMALY":204.8843,"EPHEMERIS_TYPE":0,"NORAD_CAT_ID":40072,"ELEMENT_SET_NO":999,"REV_AT_EPOCH":65097,"BSTAR":0.000087855397,"MEAN_MOTION_DOT":0.00000747,"MEAN_MOTION_DDOT":0},{"OBJECT_NAME":"SKYSAT-C1","OBJECT_ID":"2016-040C","EPOCH":"2026-07-20T08:43:47.597376","CLASSIFICATION_TYPE":"U","MEAN_MOTION":15.36798698,"ECCENTRICITY":0.00006316,"INCLINATION":96.9554,"RA_OF_ASC_NODE":231.2938,"ARG_OF_PERICENTER":198.3803,"MEAN_ANOMALY":161.742,"EPHEMERIS_TYPE":0,"NORAD_CAT_ID":41601,"ELEMENT_SET_NO":999,"REV_AT_EPOCH":56296,"BSTAR":0.00014048123,"MEAN_MOTION_DOT":0.00004976,"MEAN_MOTION_DDOT":0},{"OBJECT_NAME":"SKYSAT-C4","OBJECT_ID":"2016-058B","EPOCH":"2026-07-20T20:34:51.532896","CLASSIFICATION_TYPE":"U","MEAN_MOTION":15.49556266,"ECCENTRICITY":0.00035568,"INCLINATION":96.9174,"RA_OF_ASC_NODE":222.2407,"ARG_OF_PERICENTER":110.389,"MEAN_ANOMALY":249.7744,"EPHEMERIS_TYPE":0,"NORAD_CAT_ID":41771,"ELEMENT_SET_NO":999,"REV_AT_EPOCH":55068,"BSTAR":0.00022684765,"MEAN_MOTION_DOT":0.00012435,"MEAN_MOTION_DDOT":0},{"OBJECT_NAME":"SKYSAT-C5","OBJECT_ID":"2016-058C","EPOCH":"2026-07-20T16:35:59.881920","CLASSIFICATION_TYPE":"U","MEAN_MOTION":15.33763083,"ECCENTRICITY":0.00031402,"INCLINATION":97.0451,"RA_OF_ASC_NODE":240.8233,"ARG_OF_PERICENTER":147.2624,"MEAN_ANOMALY":212.8814,"EPHEMERIS_TYPE":0,"NORAD_CAT_ID":41772,"ELEMENT_SET_NO":999,"REV_AT_EPOCH":54888,"BSTAR":0.00013426941,"MEAN_MOTION_DOT":0.0000431,"MEAN_MOTION_DDOT":0},{"OBJECT_NAME":"SKYSAT-C2","OBJECT_ID":"2016-058D","EPOCH":"2026-07-20T00:30:42.511104","CLASSIFICATION_TYPE":"U","MEAN_MOTION":15.42746945,"ECCENTRICITY":0.00008112,"INCLINATION":97.0163,"RA_OF_ASC_NODE":221.8941,"ARG_OF_PERICENTER":320.8207,"MEAN_ANOMALY":39.2982,"EPHEMERIS_TYPE":0,"NORAD_CAT_ID":41773,"ELEMENT_SET_NO":999,"REV_AT_EPOCH":55011,"BSTAR":0.00016309524,"MEAN_MOTION_DOT":0.00007045,"MEAN_MOTION_DDOT":0},{"OBJECT_NAME":"SKYSAT-C3","OBJECT_ID":"2016-058E","EPOCH":"2026-07-20T01:32:43.850688","CLASSIFICATION_TYPE":"U","MEAN_MOTION":15.53846132,"ECCENTRICITY":0.00027191,"INCLINATION":96.8998,"RA_OF_ASC_NODE":230.6733,"ARG_OF_PERICENTER":127.1966,"MEAN_ANOMALY":232.9537,"EPHEMERIS_TYPE":0,"NORAD_CAT_ID":41774,"ELEMENT_SET_NO":999,"REV_AT_EPOCH":55121,"BSTAR":0.00022690805,"MEAN_MOTION_DOT":0.00014503,"MEAN_MOTION_DDOT":0},{"OBJECT_NAME":"SKYSAT-C11","OBJECT_ID":"2017-068A","EPOCH":"2026-07-20T21:19:34.120704","CLASSIFICATION_TYPE":"U","MEAN_MOTION":15.59533664,"ECCENTRICITY":0.00014871,"INCLINATION":97.4389,"RA_OF_ASC_NODE":352.2374,"ARG_OF_PERICENTER":152.1856,"MEAN_ANOMALY":207.948,"EPHEMERIS_TYPE":0,"NORAD_CAT_ID":42987,"ELEMENT_SET_NO":999,"REV_AT_EPOCH":48849,"BSTAR":0.00028234285,"MEAN_MOTION_DOT":0.00022322,"MEAN_MOTION_DDOT":0},{"OBJECT_NAME":"SKYSAT-C10","OBJECT_ID":"2017-068B","EPOCH":"2026-07-20T22:21:10.319616","CLASSIFICATION_TYPE":"U","MEAN_MOTION":15.35188117,"ECCENTRICITY":0.00015594,"INCLINATION":97.4543,"RA_OF_ASC_NODE":339.1285,"ARG_OF_PERICENTER":110.5311,"MEAN_ANOMALY":249.61,"EPHEMERIS_TYPE":0,"NORAD_CAT_ID":42988,"ELEMENT_SET_NO":999,"REV_AT_EPOCH":48753,"BSTAR":0.00022357225,"MEAN_MOTION_DOT":0.00007555,"MEAN_MOTION_DDOT":0},{"OBJECT_NAME":"SKYSAT-C9","OBJECT_ID":"2017-068C","EPOCH":"2026-07-20T22:03:43.727904","CLASSIFICATION_TYPE":"U","MEAN_MOTION":15.42300468,"ECCENTRICITY":0.00081461,"INCLINATION":97.4465,"RA_OF_ASC_NODE":340.3789,"ARG_OF_PERICENTER":25.7743,"MEAN_ANOMALY":334.3909,"EPHEMERIS_TYPE":0,"NORAD_CAT_ID":42989,"ELEMENT_SET_NO":999,"REV_AT_EPOCH":48795,"BSTAR":0.0002123489,"MEAN_MOTION_DOT":0.00009064,"MEAN_MOTION_DDOT":0},{"OBJECT_NAME":"SKYSAT-C8","OBJECT_ID":"2017-068D","EPOCH":"2026-07-20T21:58:53.507712","CLASSIFICATION_TYPE":"U","MEAN_MOTION":15.3756072,"ECCENTRICITY":0.00013088,"INCLINATION":97.456,"RA_OF_ASC_NODE":339.0428,"ARG_OF_PERICENTER":107.1679,"MEAN_ANOMALY":252.9709,"EPHEMERIS_TYPE":0,"NORAD_CAT_ID":42990,"ELEMENT_SET_NO":999,"REV_AT_EPOCH":48749,"BSTAR":0.00020151303,"MEAN_MOTION_DOT":0.00007342,"MEAN_MOTION_DDOT":0},{"OBJECT_NAME":"SKYSAT-C7","OBJECT_ID":"2017-068E","EPOCH":"2026-07-20T21:51:12.610368","CLASSIFICATION_TYPE":"U","MEAN_MOTION":15.37509962,"ECCENTRICITY":0.00051742,"INCLINATION":97.4572,"RA_OF_ASC_NODE":340.0294,"ARG_OF_PERICENTER":1.1896,"MEAN_ANOMALY":358.936,"EPHEMERIS_TYPE":0,"NORAD_CAT_ID":42991,"ELEMENT_SET_NO":999,"REV_AT_EPOCH":48755,"BSTAR":0.00019633447,"MEAN_MOTION_DOT":0.00007142,"MEAN_MOTION_DDOT":0},{"OBJECT_NAME":"SKYSAT-C6","OBJECT_ID":"2017-068F","EPOCH":"2026-07-20T22:22:58.616832","CLASSIFICATION_TYPE":"U","MEAN_MOTION":15.34229924,"ECCENTRICITY":0.0004939,"INCLINATION":97.461,"RA_OF_ASC_NODE":339.8793,"ARG_OF_PERICENTER":74.521,"MEAN_ANOMALY":285.6578,"EPHEMERIS_TYPE":0,"NORAD_CAT_ID":42992,"ELEMENT_SET_NO":999,"REV_AT_EPOCH":48749,"BSTAR":0.00019491897,"MEAN_MOTION_DOT":0.00006379,"MEAN_MOTION_DDOT":0},{"OBJECT_NAME":"SKYSAT-C12","OBJECT_ID":"2018-099AR","EPOCH":"2026-07-20T19:21:26.465184","CLASSIFICATION_TYPE":"U","MEAN_MOTION":15.49907429,"ECCENTRICITY":0.00049115,"INCLINATION":96.9258,"RA_OF_ASC_NODE":223.7132,"ARG_OF_PERICENTER":58.087,"MEAN_ANOMALY":302.086,"EPHEMERIS_TYPE":0,"NORAD_CAT_ID":43797,"ELEMENT_SET_NO":999,"REV_AT_EPOCH":42706,"BSTAR":0.00023341757,"MEAN_MOTION_DOT":0.00012961,"MEAN_MOTION_DDOT":0}]}
